1 45189U 20012M   23080.41403752  .00007862  00000-0  54618-3 0  9991
2 45189  53.0516 234.1221 0001678  86.9993 273.1188 15.06396155170470
1 45189U 20012M   23081.14385330  .00026080  00000-0  17625-2 0  9992
2 45189  53.0523 230.8442 0001846  84.6957 275.4242 15.06416200170580
1 45189U 20012M   23081.87364426  .00028799  00000-0  19410-2 0  9998
2 45189  53.0523 227.5682 0001499  80.9385 279.1773 15.06465035168854
1 45189U 20012M   23082.13903973 -.00007792  00000-0 -50466-3 0  9993
2 45189  53.0529 226.3786 0001755  79.8404 280.2783 15.06406264170739
1 45189U 20012M   23082.40443490  .00005944  00000-0  41768-3 0  9996
2 45189  53.0513 225.1854 0002837  91.5841 268.5473 15.06391755170770
1 45189U 20012M   23082.60348155  .00012688  00000-0  86998-3 0  9997
2 45189  53.0522 224.2924 0001414  95.3698 264.7453 15.06363858168967
1 45189U 20012M   23082.66982974  .00019485  00000-0  13246-2 0  9993
2 45189  53.0525 223.9939 0001480 103.2697 256.8458 15.06364937170816
1 45189U 20012M   23083.53233165  .00058539  00000-0  39101-2 0  9992
2 45189  53.0526 220.1214 0001429 102.3982 257.7167 15.06459629170946
1 45189U 20012M   23083.59867541  .00059041  00000-0  39423-2 0  9995
2 45189  53.0526 219.8235 0001427 101.9503 258.1646 15.06467948169113
1 45189U 20012M   23083.66501933  .00053464  00000-0  35742-2 0  9996
2 45189  53.0532 219.5265 0001559 102.9139 257.2024 15.06470714169128
1 45189U 20012M   23084.06309583  .00015038  00000-0  10251-2 0  9991
2 45189  53.0527 217.7409 0001650  84.2292 275.8885 15.06443786171028
1 45189U 20012M   23084.52755828  .00014371  00000-0  98438-3 0  9992
2 45189  53.0529 215.6546 0001311 104.1915 255.9220 15.06298672171098
1 45189U 20012M   23084.79296658  .00033916  00000-0  22912-2 0  9991
2 45189  53.0522 214.4628 0001369  92.0004 268.1142 15.06297116169296
1 45189U 20012M   23085.65551651  .00030936  00000-0  20894-2 0  9990
2 45189  53.0519 210.5911 0001340  87.4586 272.6556 15.06350586171266
1 45189U 20012M   23085.85456176  .00030913  00000-0  20871-2 0  9998
2 45189  53.0516 209.6976 0001350  87.0436 273.0708 15.06364314169450
1 45189U 20012M   23086.05360335  .00040132  00000-0  26986-2 0  9999
2 45189  53.0521 208.8049 0001408  84.6764 275.4386 15.06389360171324
1 45189U 20012M   23086.58436921  .00038310  00000-0  25743-2 0  9997
2 45189  53.0514 206.4215 0001303  81.6234 278.4903 15.06437119169565
1 45189U 20012M   23086.65071420  .00037037  00000-0  24895-2 0  9996
2 45189  53.0511 206.1234 0001285  80.0004 280.1130 15.06441709169570
1 45189U 20012M   23087.51317769  .00039769  00000-0  26659-2 0  9995
2 45189  53.0515 202.2518 0001273  73.8237 286.2892 15.06508619171547
1 45189U 20012M   23087.57951956  .00040011  00000-0  26816-2 0  9990
2 45189  53.0515 201.9539 0001272  73.1229 286.9899 15.06513514169719
1 45189U 20012M   23087.71220239  .00041933  00000-0  28078-2 0  9995
2 45189  53.0514 201.3581 0001298  72.2843 287.8288 15.06525391169739
1 45189U 20012M   23088.04393209 -.00007537  00000-0 -48683-3 0  9999
2 45189  53.0513 199.8690 0001607  78.1745 281.9424 15.06457266171623
1 45189U 20012M   23088.50836148  .00015013  00000-0  10244-2 0  9991
2 45189  53.0519 197.7837 0001273 104.6929 255.4201 15.06407013171698
1 45189U 20012M   23088.77374938  .00042416  00000-0  28479-2 0  9990
2 45189  53.0515 196.5914 0001355  97.7484 262.3659 15.06418960169892
1 45189U 20012M   23088.77374938  .00042416  00000-0  28479-2 0  9990
2 45189  53.0515 196.5914 0001355  97.7484 262.3659 15.06418960171738
1 45189U 20012M   23089.76890712  .00047017  00000-0  31451-2 0  9999
2 45189  53.0521 192.1230 0001262  93.6121 266.5012 15.06509261170045
1 45189U 20012M   23090.43240539 -.00016085  00000-0 -10653-2 0  9995
2 45189  53.0520 189.1449 0001220  47.5130 312.5962 15.06333167171984
1 45189U 20012M   23091.49400456  .00030480  00000-0  20583-2 0  9994
2 45189  53.0520 184.3799 0001310  81.2484 278.8653 15.06363888172149
1 45189U 20012M   23091.56035261  .00025417  00000-0  17208-2 0  9994
2 45189  53.0514 184.0815 0001172  73.8418 286.2700 15.06363262170317
1 45189U 20012M   23091.62669957  .00021408  00000-0  14530-2 0  9997
2 45189  53.0520 183.7852 0001195  80.8405 279.2719 15.06367412170324
1 45189U 20012M   23092.48921275  .00014915  00000-0  10181-2 0  9999
2 45189  53.0515 179.9132 0001471  89.5489 270.5669 15.06399053172293
1 45189U 20012M   23092.55555847  .00019643  00000-0  13336-2 0  9993
2 45189  53.0519 179.6148 0001476  85.8603 274.2555 15.06409780170464
1 45189U 20012M   23092.62190480  .00017584  00000-0  11961-2 0  9993
2 45189  53.0514 179.3179 0001651  84.7427 275.3750 15.06410881170471
1 45189U 20012M   23092.95363080  .00021264  00000-0  14409-2 0  9997
2 45189  53.0516 177.8286 0001539  89.7691 270.3474 15.06431606172364
1 45189U 20012M   23093.48438419  .00023828  00000-0  16102-2 0  9995
2 45189  53.0517 175.4462 0001541  85.2383 274.8781 15.06467876170600
1 45189U 20012M   23093.48438419  .00023828  00000-0  16102-2 0  9995
2 45189  53.0517 175.4462 0001541  85.2383 274.8781 15.06467876172444
1 45189U 20012M   23093.61707090  .00024540  00000-0  16572-2 0  9997
2 45189  53.0516 174.8505 0001561  84.6451 275.4716 15.06476308170628
1 45189U 20012M   23093.94881333 -.00003047  00000-0 -18563-3 0  9990
2 45189  53.0514 173.3609 0002834  67.6861 292.4428 15.06412741172515
1 45189U 20012M   23094.47959193  .00018462  00000-0  12557-2 0  9990
2 45189  53.0522 170.9782 0001477  61.8358 298.2780 15.06380834170754
1 45189U 20012M   23094.47959193  .00018462  00000-0  12557-2 0  9990
2 45189  53.0522 170.9782 0001477  61.8358 298.2780 15.06380834172598
1 45189U 20012M   23094.67863560  .00029646  00000-0  20016-2 0  9999
2 45189  53.0519 170.0842 0001697  58.0620 302.0534 15.06385017170784
1 45189U 20012M   23095.47479060  .00025855  00000-0  17469-2 0  9992
2 45189  53.0526 166.5091 0001618  65.8659 294.2499 15.06429199170905
1 45189U 20012M   23095.47479060  .00025855  00000-0  17469-2 0  9992
2 45189  53.0526 166.5091 0001618  65.8659 294.2499 15.06429199172749
1 45189U 20012M   23096.20460880  .00018373  00000-0  12489-2 0  9998
2 45189  53.0519 163.2312 0001487  85.0700 275.0459 15.06407505172858
1 45189U 20012M   23096.40365285  .00017030  00000-0  11600-2 0  9996
2 45189  53.0520 162.3401 0001573  73.6488 286.4673 15.06381955172888
1 45189U 20012M   23096.47000061  .00020775  00000-0  14102-2 0  9991
2 45189  53.0520 162.0422 0001515  72.2004 287.9150 15.06381247171051
1 45189U 20012M   23096.86808399  .00021022  00000-0  14261-2 0  9996
2 45189  53.0518 160.2552 0001581  73.9975 286.1188 15.06397111171116
1 45189U 20012M   23097.46519936  .00021763  00000-0  14744-2 0  9997
2 45189  53.0519 157.5748 0001613  73.9745 286.1422 15.06425040171208
1 45189U 20012M   23097.46519936  .00021763  00000-0  14744-2 0  9997
2 45189  53.0519 157.5748 0001613  73.9745 286.1422 15.06425040173042
1 45189U 20012M   23098.12866834  .00004494  00000-0  32037-3 0  9991
2 45189  53.0534 154.6003 0001866  93.9835 266.1368 15.06406202173140
1 45189U 20012M   23098.46040705  .00000500  00000-0  52490-4 0  9999
2 45189  53.0524 153.1075 0001624  82.6783 277.4391 15.06392601171350
1 45189U 20012M   23098.46040705  .00000500  00000-0  52490-4 0  9999
2 45189  53.0524 153.1075 0001624  82.6783 277.4391 15.06392601173194
1 45189U 20012M   23099.19022036  .00017556  00000-0  11941-2 0  9990
2 45189  53.0521 149.8303 0001458  78.9851 281.1301 15.06414690173305
1 45189U 20012M   23099.45560389  .00015542  00000-0  10594-2 0  9993
2 45189  53.0512 148.6383 0001418  79.3780 280.7368 15.06421020171505
1 45189U 20012M   23099.85368491  .00005783  00000-0  40665-3 0  9996
2 45189  53.0525 146.8532 0001586  76.6116 283.5049 15.06411593173406
1 45189U 20012M   23100.31811942  .00010000  00000-0  68912-3 0  9997
2 45189  53.0519 144.7668 0003364  84.5585 275.5787 15.06408696171633
1 45189U 20012M   23100.31811942  .00010000  00000-0  68912-3 0  9997
2 45189  53.0519 144.7668 0003364  84.5585 275.5787 15.06408696173477
1 45189U 20012M   23100.58350352  .00008120  00000-0  56339-3 0  9999
2 45189  53.0508 143.5740 0001574  87.8434 272.2735 15.06401524173518
1 45189U 20012M   23100.84889003  .00015387  00000-0  10494-2 0  9992
2 45189  53.0513 142.3832 0001447  86.5896 273.5258 15.06408255171712
1 45189U 20012M   23101.37965686  .00016561  00000-0  11273-2 0  9994
2 45189  53.0516 140.0000 0001426  86.8660 273.2492 15.06426503171797
1 45189U 20012M   23101.37965686  .00016561  00000-0  11273-2 0  9994
2 45189  53.0516 140.0000 0001426  86.8660 273.2492 15.06426503173632
1 45189U 20012M   23102.37486067  .00000420  00000-0  47107-4 0  9990
2 45189  53.0522 135.5302 0001429  97.5958 262.5193 15.06394436171945
1 45189U 20012M   23102.37486067  .00000420  00000-0  47107-4 0  9990
2 45189  53.0522 135.5302 0001429  97.5958 262.5193 15.06394436173789
1 45189U 20012M   23103.37005611  .00021421  00000-0  14513-2 0  9990
2 45189  53.0527 131.0653 0001358  93.4924 266.6220 15.06433694172092
1 45189U 20012M   23103.37005611  .00021421  00000-0  14513-2 0  9990
2 45189  53.0527 131.0653 0001358  93.4924 266.6220 15.06433694173936
1 45189U 20012M   23103.76813717  .00014348  00000-0  97969-3 0  9994
2 45189  53.0533 129.2800 0001579  90.5332 269.5838 15.06417334173998
1 45189U 20012M   23104.09987381  .00007359  00000-0  51254-3 0  9991
2 45189  53.0528 127.7886 0001176  94.9428 265.1696 15.06391075174040
1 45189U 20012M   23104.36526275  .00024211  00000-0  16390-2 0  9999
2 45189  53.0525 126.5975 0001128  91.4048 268.7070 15.06393586172244
1 45189U 20012M   23105.22776693  .00018482  00000-0  12557-2 0  9990
2 45189  53.0528 122.7249 0001230  94.3576 265.7553 15.06421280174216
1 45189U 20012M   23105.42680406  .00017504  00000-0  11902-2 0  9995
2 45189  53.0525 121.8312 0001190  93.8028 266.3097 15.06426902172400
1 45189U 20012M   23105.75854445  .00006502  00000-0  45491-3 0  9994
2 45189  53.0521 120.3439 0001495  76.2536 283.8619 15.06405991172451
